[
    {
        "Altitude(m)": 611967.1459907889,
        "Argument of Periapsis(deg)": 0.0,
        "Eccentricity": 0.0,
        "Inclination(deg)": 60.0,
        "Latitude(deg)": 59.1400617225694,
        "Longitude(deg)": -108.90785579798262,
        "Mean Anomaly(deg)": 98.18179999999998,
        "RAAN(deg)": 245.0,
        "Satellite Name": "Test1 1084",
        "Satellite Number": 1084,
        "Semi-Major Axis(m)": 6980739.136638005,
        "Time(s)": 0
    },
    {
        "Altitude(m)": 611934.3454293335,
        "Argument of Periapsis(deg)": 0.00010418945913296404,
        "Eccentricity": 0.0,
        "Inclination(deg)": 60.0,
        "Latitude(deg)": 58.986422906695296,
        "Longitude(deg)": -107.78461385281915,
        "Mean Anomaly(deg)": 98.80190614546184,
        "RAAN(deg)": 244.99957995086027,
        "Satellite Name": "Test1 1084",
        "Satellite Number": 1084,
        "Semi-Major Axis(m)": 6980739.136638005,
        "Time(s)": 10
    },
    {
        "Altitude(m)": 611899.2402376821,
        "Argument of Periapsis(deg)": 0.0002083789182659281,
        "Eccentricity": 0.0,
        "Inclination(deg)": 60.0,
        "Latitude(deg)": 58.82240602813523,
        "Longitude(deg)": -106.67203721884515,
        "Mean Anomaly(deg)": 99.42201229092365,
        "RAAN(deg)": 244.9991599017205,
        "Satellite Name": "Test1 1084",
        "Satellite Number": 1084,
        "Semi-Major Axis(m)": 6980739.136638005,
        "Time(s)": 20
    },
    {
        "Altitude(m)": 611861.8506503896,
        "Argument of Periapsis(deg)": 0.00031256837739889213,
        "Eccentricity": 0.0,
        "Inclination(deg)": 60.0,
        "Latitude(deg)": 58.648174136022675,
        "Longitude(deg)": -105.5706376827496,
        "Mean Anomaly(deg)": 100.0421184363855,
        "RAAN(deg)": 244.9987398525808,
        "Satellite Name": "Test1 1084",
        "Satellite Number": 1084,
        "Semi-Major Axis(m)": 6980739.136638005,
        "Time(s)": 30
    },
    {
        "Altitude(m)": 611822.1982278412,
        "Argument of Periapsis(deg)": 0.0004167578365318562,
        "Eccentricity": 0.0,
        "Inclination(deg)": 60.0,
        "Latitude(deg)": 58.46389672834713,
        "Longitude(deg)": -104.48088628291315,
        "Mean Anomaly(deg)": 100.6622245818473,
        "RAAN(deg)": 244.99831980344103,
        "Satellite Name": "Test1 1084",
        "Satellite Number": 1084,
        "Semi-Major Axis(m)": 6980739.136638005,
        "Time(s)": 40
    },
    {
        "Altitude(m)": 611780.3058460399,
        "Argument of Periapsis(deg)": 0.0005209472956648203,
        "Eccentricity": 0.0,
        "Inclination(deg)": 60.0,
        "Latitude(deg)": 58.26974903544358,
        "Longitude(deg)": -103.40321408574572,
        "Mean Anomaly(deg)": 101.28233072730914,
        "RAAN(deg)": 244.9978997543013,
        "Satellite Name": "Test1 1084",
        "Satellite Number": 1084,
        "Semi-Major Axis(m)": 6980739.136638005,
        "Time(s)": 50
    },
    {
        "Altitude(m)": 611736.1976858065,
        "Argument of Periapsis(deg)": 0.0006251367547977843,
        "Eccentricity": 0.0,
        "Inclination(deg)": 60.0,
        "Latitude(deg)": 58.065911309938876,
        "Longitude(deg)": -102.33801173915147,
        "Mean Anomaly(deg)": 101.90243687277095,
        "RAAN(deg)": 244.99747970516154,
        "Satellite Name": "Test1 1084",
        "Satellite Number": 1084,
        "Semi-Major Axis(m)": 6980739.136638005,
        "Time(s)": 60
    },
    {
        "Altitude(m)": 611689.8992213188,
        "Argument of Periapsis(deg)": 0.0007293262139307483,
        "Eccentricity": 0.0,
        "Inclination(deg)": 60.0,
        "Latitude(deg)": 57.85256812853814,
        "Longitude(deg)": -101.28562929575465,
        "Mean Anomaly(deg)": 102.52254301823282,
        "RAAN(deg)": 244.99705965602183,
        "Satellite Name": "Test1 1084",
        "Satellite Number": 1084,
        "Semi-Major Axis(m)": 6980739.136638005,
        "Time(s)": 70
    },
    {
        "Altitude(m)": 611641.4372080585,
        "Argument of Periapsis(deg)": 0.0008335156730637124,
        "Eccentricity": 0.0,
        "Inclination(deg)": 60.0,
        "Latitude(deg)": 57.62990771049389,
        "Longitude(deg)": -100.24637779637347,
        "Mean Anomaly(deg)": 103.1426491636946,
        "RAAN(deg)": 244.99663960688207,
        "Satellite Name": "Test1 1084",
        "Satellite Number": 1084,
        "Semi-Major Axis(m)": 6980739.136638005,
        "Time(s)": 80
    },
    {
        "Altitude(m)": 611590.8396701324,
        "Argument of Periapsis(deg)": 0.0009377051321966765,
        "Eccentricity": 0.0,
        "Inclination(deg)": 60.0,
        "Latitude(deg)": 57.39812125702688,
        "Longitude(deg)": -99.22052956407234,
        "Mean Anomaly(deg)": 103.76275530915647,
        "RAAN(deg)": 244.99621955774234,
        "Satellite Name": "Test1 1084",
        "Satellite Number": 1084,
        "Semi-Major Axis(m)": 6980739.136638005,
        "Time(s)": 90
    },
    {
        "Altitude(m)": 611538.1358869956,
        "Argument of Periapsis(deg)": 0.0010418945913296407,
        "Eccentricity": 0.0,
        "Inclination(deg)": 60.0,
        "Latitude(deg)": 57.157402315386484,
        "Longitude(deg)": -98.20831869677568,
        "Mean Anomaly(deg)": 104.38286145461831,
        "RAAN(deg)": 244.99579950860257,
        "Satellite Name": "Test1 1084",
        "Satellite Number": 1084,
        "Semi-Major Axis(m)": 6980739.136638005,
        "Time(s)": 100
    },
    {
        "Altitude(m)": 611483.3563795442,
        "Argument of Periapsis(deg)": 0.0011460840504626045,
        "Eccentricity": 0.0,
        "Inclination(deg)": 60.0,
        "Latitude(deg)": 56.90794617065076,
        "Longitude(deg)": -97.20994324600862,
        "Mean Anomaly(deg)": 105.00296760008013,
        "RAAN(deg)": 244.99537945946287,
        "Satellite Name": "Test1 1084",
        "Satellite Number": 1084,
        "Semi-Major Axis(m)": 6980739.136638005,
        "Time(s)": 110
    },
    {
        "Altitude(m)": 611426.5328956695,
        "Argument of Periapsis(deg)": 0.0012502735095955685,
        "Eccentricity": 0.0,
        "Inclination(deg)": 60.0,
        "Latitude(deg)": 56.64994926778889,
        "Longitude(deg)": -96.22556603079295,
        "Mean Anomaly(deg)": 105.62307374554199,
        "RAAN(deg)": 244.9949594103231,
        "Satellite Name": "Test1 1084",
        "Satellite Number": 1084,
        "Semi-Major Axis(m)": 6980739.136638005,
        "Time(s)": 120
    },
    {
        "Altitude(m)": 611367.6983951443,
        "Argument of Periapsis(deg)": 0.0013544629687285324,
        "Eccentricity": 0.0,
        "Inclination(deg)": 60.0,
        "Latitude(deg)": 56.38360866595554,
        "Longitude(deg)": -95.25531557483757,
        "Mean Anomaly(deg)": 106.24317989100376,
        "RAAN(deg)": 244.99453936118337,
        "Satellite Name": "Test1 1084",
        "Satellite Number": 1084,
        "Semi-Major Axis(m)": 6980739.136638005,
        "Time(s)": 130
    },
    {
        "Altitude(m)": 611306.8870339759,
        "Argument of Periapsis(deg)": 0.0014586524278614966,
        "Eccentricity": 0.0,
        "Inclination(deg)": 60.0,
        "Latitude(deg)": 56.10912152645997,
        "Longitude(deg)": -94.29928865602882,
        "Mean Anomaly(deg)": 106.86328603646564,
        "RAAN(deg)": 244.9941193120436,
        "Satellite Name": "Test1 1084",
        "Satellite Number": 1084,
        "Semi-Major Axis(m)": 6980739.136638005,
        "Time(s)": 140
    },
    {
        "Altitude(m)": 611244.1341481783,
        "Argument of Periapsis(deg)": 0.0015628418869944607,
        "Eccentricity": 0.0,
        "Inclination(deg)": 60.0,
        "Latitude(deg)": 55.82668463535963,
        "Longitude(deg)": -93.35755141979116,
        "Mean Anomaly(deg)": 107.48339218192744,
        "RAAN(deg)": 244.9936992629039,
        "Satellite Name": "Test1 1084",
        "Satellite Number": 1084,
        "Semi-Major Axis(m)": 6980739.136638005,
        "Time(s)": 150
    },
    {
        "Altitude(m)": 611179.4762369371,
        "Argument of Periapsis(deg)": 0.0016670313461274247,
        "Eccentricity": 0.0,
        "Inclination(deg)": 60.0,
        "Latitude(deg)": 55.536493961179666,
        "Longitude(deg)": -92.43014054790028,
        "Mean Anomaly(deg)": 108.10349832738929,
        "RAAN(deg)": 244.99327921376414,
        "Satellite Name": "Test1 1084",
        "Satellite Number": 1084,
        "Semi-Major Axis(m)": 6980739.136638005,
        "Time(s)": 160
    },
    {
        "Altitude(m)": 611112.9509452399,
        "Argument of Periapsis(deg)": 0.0017712208052603888,
        "Eccentricity": 0.0,
        "Inclination(deg)": 60.0,
        "Latitude(deg)": 55.238744247851905,
        "Longitude(deg)": -91.51706597592155,
        "Mean Anomaly(deg)": 108.7236044728511,
        "RAAN(deg)": 244.9928591646244,
        "Satellite Name": "Test1 1084",
        "Satellite Number": 1084,
        "Semi-Major Axis(m)": 6980739.136638005,
        "Time(s)": 170
    },
    {
        "Altitude(m)": 611044.597045933,
        "Argument of Periapsis(deg)": 0.001875410264393353,
        "Eccentricity": 0.0,
        "Inclination(deg)": 60.0,
        "Latitude(deg)": 54.9336286426033,
        "Longitude(deg)": -90.61831211554043,
        "Mean Anomaly(deg)": 109.34371061831294,
        "RAAN(deg)": 244.99243911548464,
        "Satellite Name": "Test1 1084",
        "Satellite Number": 1084,
        "Semi-Major Axis(m)": 6980739.136638005,
        "Time(s)": 180
    },
    {
        "Altitude(m)": 610974.4544212426,
        "Argument of Periapsis(deg)": 0.0019795997235263173,
        "Eccentricity": 0.0,
        "Inclination(deg)": 60.0,
        "Latitude(deg)": 54.62133835821058,
        "Longitude(deg)": -89.73383907844327,
        "Mean Anomaly(deg)": 109.96381676377474,
        "RAAN(deg)": 244.99201906634494,
        "Satellite Name": "Test1 1084",
        "Satellite Number": 1084,
        "Semi-Major Axis(m)": 6980739.136638005,
        "Time(s)": 190
    }
]